ONEWEB-0113             
1 48050U 21025J   24040.29524130  .00000043  00000+0  83449-4 0  9991
2 48050  87.9004 131.1862 0001980 106.4511 253.6836 13.13470949140835
ONEWEB-0112             
1 48051U 21025K   24040.28254006 -.00000312  00000+0 -89058-3 0  9995
2 48051  87.8997 131.1953 0001758 109.6544 250.4775 13.13469845140842
ONEWEB-0156             
1 48052U 21025L   24040.29206627 -.00000009  00000+0 -58763-4 0  9996
2 48052  87.9002 131.1856 0001708 107.9517 252.1798 13.13470225140825
ONEWEB-0161             
1 48053U 21025M   24040.26508584 -.00000133  00000+0 -39792-3 0  9999
2 48053  87.9005 131.1946 0001568 101.8159 258.3146 13.13471637140753
ONEWEB-0158             
1 48054U 21025N   24040.76024428  .00000175  00000+0  44552-3 0  9999
2 48054  87.9000 131.0906 0001963 109.6583 250.4758 13.13468025140940
ONEWEB-0157             
1 48055U 21025P   24040.32698313  .00000267  00000+0  69717-3 0  9994
2 48055  87.8999 131.1930 0001566 110.8304 249.2993 13.13469556140823
ONEWEB-0162             
1 48056U 21025Q   24040.29047684 -.00000035  00000+0 -13030-3 0  9992
2 48056  87.8999 131.1981 0001770 108.8990 251.2331 13.13470544140799
ONEWEB-0155             
1 48057U 21025R   24040.31110838  .00000366  00000+0  96742-3 0  9994
2 48057  87.9001 131.2021 0001800 106.4420 253.6907 13.13471626140930
ONEWEB-0149             
1 48058U 21025S   24040.71263168  .00000154  00000+0  38589-3 0  9994
2 48058  87.8999 131.1194 0001698 115.8363 244.2942 13.13469218140806
ONEWEB-0148             
1 48059U 21025T   24040.29684188 -.00001094  00000+0 -30303-2 0  9998
2 48059  87.9004 131.2066 0001194 125.6902 234.4339 13.13460665140867
ONEWEB-0160             
1 48060U 21025U   24040.76977028  .00000333  00000+0  87820-3 0  9990
2 48060  87.9004 131.1093 0002802 109.4660 250.6772 13.13469599140873
ONEWEB-0163             
1 48061U 21025V   24040.29841223  .00000157  00000+0  39371-3 0  9998
2 48061  87.9001 131.1990 0001459 103.4793 256.6498 13.13471616140936
ONEWEB-0159             
1 48062U 21025W   24040.28729691 -.00000099  00000+0 -30677-3 0  9999
2 48062  87.9000 131.1861 0001559 110.9373 249.1923 13.13471922140852
ONEWEB-0164             
1 48063U 21025X   24040.80309393 -.00000169  00000+0 -49673-3 0  9995
2 48063  87.9001 131.0930 0001847 101.6529 258.4808 13.13469420140912
ONEWEB-0167             
1 48064U 21025Y   24040.60392121  .00000065  00000+0  14405-3 0  9993
2 48064  87.9002 131.1430 0001555 105.1181 255.0120 13.13469761140861
ONEWEB-0166             
1 48065U 21025Z   24040.32063174  .00000390  00000+0  10325-2 0  9993
2 48065  87.8997 131.1876 0001669 113.9134 246.2170 13.13470451140909
ONEWEB-0151             
1 48066U 21025AA  24041.16017623 -.00000714  00000+0 -19892-2 0  9995
2 48066  87.9000 131.0313 0001864  96.5832 263.5509 13.13475510140964
ONEWEB-0170             
1 48067U 21025AB  24040.78722800  .00000182  00000+0  46469-3 0  9991
2 48067  87.9002 131.1061 0002376  96.7344 263.4056 13.13469239140863
ONEWEB-0168             
1 48068U 21025AC  24041.15383162  .00000360  00000+0  95213-3 0  9997
2 48068  87.9002 130.9996 0001636 105.7988 254.3322 13.13469611140927
ONEWEB-0173             
1 48069U 21025AD  24041.14589551  .00000258  00000+0  67181-3 0  9996
2 48069  87.9003 131.0119 0001459  91.7460 268.3836 13.13470510141162
ONEWEB-0171             
1 48070U 21025AE  24040.80150458 -.00000238  00000+0 -68666-3 0  9999
2 48070  87.9003 131.1148 0001768 100.9931 259.1397 13.13469237140934
ONEWEB-0172             
1 48071U 21025AF  24041.16177757  .00006224  00000+0  17005-1 0  9999
2 48071  87.9004 131.0104 0001100 104.0881 256.0370 13.13442479141876
ONEWEB-0174             
1 48072U 21025AG  24040.61106864  .00000101  00000+0  24076-3 0  9996
2 48072  87.9003 131.1339 0001663 108.9258 251.2051 13.13467784141129
ONEWEB-0175             
1 48073U 21025AH  24040.33492158  .00000076  00000+0  17379-3 0  9999
2 48073  87.8999 131.1849 0002038  96.1108 264.0253 13.13469676140743
ONEWEB-0177             
1 48074U 21025AJ  24041.18556282 -.00000131  00000+0 -39271-3 0  9992
2 48074  87.8999 131.0218 0001237  98.7961 261.3308 13.13469475141040
ONEWEB-0178             
1 48075U 21025AK  24040.74609830 -.00000138  00000+0 -41188-3 0  9999
2 48075  87.9005 131.1181 0001538 104.3250 255.8050 13.13470247141039
ONEWEB-0108             
1 48076U 21025AL  24040.32539732  .00000249  00000+0  64769-3 0  9998
2 48076  87.8999 131.1908 0001959 114.0375 246.0960 13.13469498140904
ONEWEB-0169             
1 48077U 21025AM  24040.73802482 -.00000249  00000+0 -71572-3 0  9991
2 48077  87.9001 131.1154 0001964 114.5186 245.6148 13.13470096140857
ONEWEB-0176             
1 48210U 21031A   24040.57038429 -.00000140  00000+0 -41128-3 0  9995
2 48210  87.8944 100.6019 0001960 100.3987 259.7364 13.14503565135512
ONEWEB-0184             
1 48211U 21031B   24040.54342652  .00000225  00000+0  57320-3 0  9992
2 48211  87.8939 100.5957 0002449  75.7192 284.4210 13.14502553135480
ONEWEB-0179             
1 48212U 21031C   24041.12222353 -.00000062  00000+0 -20298-3 0  9998
2 48212  87.8941 100.4783 0001750 101.1761 258.9565 13.14503953135608
ONEWEB-0180             
1 48213U 21031D   24040.54659125  .00000179  00000+0  44886-3 0  9991
2 48213  87.8939 100.5948 0001610  97.6467 262.4846 13.14502951135415
ONEWEB-0218             
1 48214U 21031E   24041.17773972 -.00000027  00000+0 -10785-3 0  9994
2 48214  87.8938 100.4703 0002146  67.7458 292.3899 13.14502869135650
ONEWEB-0209             
1 48215U 21031F   24040.55769642 -.00000049  00000+0 -16731-3 0  9996
2 48215  87.8943 100.6252 0001697 101.7722 258.3598 13.14502074135578
ONEWEB-0198             
1 48216U 21031G   24040.54184029  .00000267  00000+0  68615-3 0  9994
2 48216  87.8941 100.6344 0001711  85.3957 274.7368 13.14502240135687
ONEWEB-0189             
1 48217U 21031H   24041.16346189  .00000351  00000+0  91201-3 0  9992
2 48217  87.8939 100.4862 0001624  84.4534 275.6781 13.14501639135503
ONEWEB-0196             
1 48218U 21031J   24041.14126497  .00000222  00000+0  56500-3 0  9999
2 48218  87.8940 100.4918 0001881  93.4004 266.7341 13.14502103135493
ONEWEB-0183             
1 48219U 21031K   24041.11588710 -.00000115  00000+0 -34437-3 0  9995
2 48219  87.8941 100.5149 0001771 101.5709 258.5619 13.14502511135594
ONEWEB-0185             
1 48220U 21031L   24040.53311087  .00000261  00000+0  66904-3 0  9997
2 48220  87.8940 100.6047 0001638 101.4467 258.6847 13.14501843135440
ONEWEB-0187             
1 48221U 21031M   24040.65521422 -.00000175  00000+0 -50588-3 0  9994
2 48221  87.8942 100.6108 0001720 102.7101 257.4221 13.14501859135475
ONEWEB-0192             
1 48222U 21031N   24041.16821899  .00000095  00000+0  22094-3 0  9993
2 48222  87.8939 100.5054 0001845  94.9132 265.2208 13.14501933135469
ONEWEB-0219             
1 48223U 21031P   24040.53866425  .00000105  00000+0  24866-3 0  9999
2 48223  87.8941 100.6060 0001603  99.5491 260.5820 13.14502195135573
ONEWEB-0202             
1 48224U 21031Q   24040.67188326  .00000082  00000+0  18684-3 0  9997
2 48224  87.8938 100.5999 0001824  71.4258 288.7069 13.14504559135589
ONEWEB-0204             
1 48225U 21031R   24041.16267128  .00000232  00000+0  59253-3 0  9995
2 48225  87.8940 100.5144 0001957 114.1154 246.0181 13.14502856135548
ONEWEB-0205             
1 48226U 21031S   24040.68139074  .00000166  00000+0  41422-3 0  9995
2 48226  87.8940 100.5816 0001626  99.7238 260.4076 13.14501798135490
ONEWEB-0206             
1 48227U 21031T   24040.73053799 -.00000203  00000+0 -58163-3 0  9995
2 48227  87.8938 100.5641 0001635 103.4015 256.7297 13.14501443135456
ONEWEB-0182             
1 48228U 21031U   24040.57354693 -.00000138  00000+0 -40701-3 0  9991
2 48228  87.8944 100.6169 0001911 106.7419 253.3920 13.14503222135634
ONEWEB-0186             
1 48229U 21031V   24041.11747786 -.00000109  00000+0 -32840-3 0  9995
2 48229  87.8940 100.4734 0001847  97.1926 262.9414 13.14502615135663
ONEWEB-0181             
1 48230U 21031W   24041.17138370  .00000104  00000+0  24525-3 0  9990
2 48230  87.8942 100.5312 0001829  95.1761 264.9577 13.14503948135522
ONEWEB-0188             
1 48231U 21031X   24040.60051232  .00000161  00000+0  40079-3 0  9994
2 48231  87.8940 100.6427 0001796 101.0596 259.0736 13.14502611135343
ONEWEB-0220             
1 48232U 21031Y   24040.56403061 -.00000094  00000+0 -28690-3 0  9993
2 48232  87.8937 100.6219 0001478 101.7136 258.4160 13.14504926135607
ONEWEB-0165             
1 48233U 21031Z   24041.12540500 -.00000023  00000+0 -95765-4 0  9997
2 48233  87.8941 100.5182 0001735  96.8805 263.2522 13.14506851135632
ONEWEB-0199             
1 48234U 21031AA  24040.72894659 -.00000166  00000+0 -48212-3 0  9992
2 48234  87.8940 100.5687 0001748  99.4017 260.7310 13.14503128135484
ONEWEB-0203             
1 48235U 21031AB  24041.17617314 -.00000021  00000+0 -92006-4 0  9995
2 48235  87.8939 100.4801 0002339  91.9097 268.2300 13.14503149135555
ONEWEB-0197             
1 48236U 21031AC  24040.69486085  .00000247  00000+0  63208-3 0  9990
2 48236  87.8942 100.5841 0001897 113.1210 247.0120 13.14501652135403
ONEWEB-0194             
1 48237U 21031AD  24040.59734057  .00000125  00000+0  30235-3 0  9994
2 48237  87.8941 100.5951 0002196  98.0185 262.1194 13.14502006135560
ONEWEB-0193             
1 48238U 21031AE  24041.14601758  .00000287  00000+0  73872-3 0  9991
2 48238  87.8940 100.4943 0001871  94.2529 265.8814 13.14501677135583
ONEWEB-0191             
1 48239U 21031AF  24041.15712315  .00000327  00000+0  84658-3 0  9994
2 48239  87.8938 100.4795 0001895  97.1975 262.9370 13.14502383135444
ONEWEB-0195             
1 48240U 21031AG  24040.60129972  .00000172  00000+0  42932-3 0  9993
2 48240  87.8939 100.5901 0001595  86.5756 273.5556 13.14501973135351
